[{"OBJECT_NAME":"STARLINK-36040","OBJECT_ID":"2025-270AC","EPOCH":"2026-03-09T23:06:36.441792","MEAN_MOTION":15.27622482,"ECCENTRICITY":0.00012527,"INCLINATION":43.0025,"RA_OF_ASC_NODE":54.977,"ARG_OF_PERICENTER":213.581,"MEAN_ANOMALY":146.4963,"EPHEMERIS_TYPE":0,"CLASSIFICATION_TYPE":"U","NORAD_CAT_ID":66614,"ELEMENT_SET_NO":999,"REV_AT_EPOCH":1758,"BSTAR":0.0012926562,"MEAN_MOTION_DOT":0.00035527,"MEAN_MOTION_DDOT":0},{"OBJECT_NAME":"CZ-6A DEB","OBJECT_ID":"2024-140YZ","EPOCH":"2026-03-09T14:14:13.172928","MEAN_MOTION":14.91044947,"ECCENTRICITY":0.0161166,"INCLINATION":89.0861,"RA_OF_ASC_NODE":285.7767,"ARG_OF_PERICENTER":146.5264,"MEAN_ANOMALY":214.6281,"EPHEMERIS_TYPE":0,"CLASSIFICATION_TYPE":"U","NORAD_CAT_ID":61432,"ELEMENT_SET_NO":999,"REV_AT_EPOCH":8368,"BSTAR":0.0010034,"MEAN_MOTION_DOT":0.0001278,"MEAN_MOTION_DDOT":0}]
